*******************************************************************************
 Revised: April 12, 2021                Venus                           299 / 2
 
 PHYSICAL DATA (updated 2020-Oct-19):
  Vol. Mean Radius (km) =  6051.84+-0.01 Density (g/cm^3)      =  5.204
  Mass x10^23 (kg)      =    48.685      Volume (x10^10 km^3)  = 92.843
  Sidereal rot. period  =   243.018484 d Sid. Rot. Rate (rad/s)= -0.00000029924
  Mean solar day        =   116.7490 d   Equ. gravity  m/s^2   =  8.870
  Mom. of Inertia       =     0.33       Core radius (km)      = ~3200
  Geometric Albedo      =     0.65       Potential Love # k2   = ~0.25
  GM (km^3/s^2)         = 324858.592     Equatorial Radius, Re = 6051.893 km
  GM 1-sigma (km^3/s^2) =    +-0.006     Mass ratio (Sun/Venus)= 408523.72
  Atmos. pressure (bar) =  90            Max. angular diam.    =   60.2"
  Mean Temperature (K)  = 735            Visual mag. V(1,0)    =   -4.40
  Obliquity to orbit    = 177.3 deg      Hill's sphere rad.,Rp =  167.1
  Sidereal orb. per., y =   0.61519726   Orbit speed, km/s     =   35.021
  Sidereal orb. per., d = 224.70079922   Escape speed, km/s    =   10.361
                                 Perihelion  Aphelion    Mean
  Solar Constant (W/m^2)         2759         2614       2650
  Maximum Planetary IR (W/m^2)    153         153         153
  Minimum Planetary IR (W/m^2)    153         153         153
*******************************************************************************


*******************************************************************************
Ephemeris / WWW_USER Sun Dec 14 09:54:51 2025 Pasadena, USA      / Horizons
*******************************************************************************
Target body name: Venus (299)                     {source: DE441}
Center body name: Solar System Barycenter (0)     {source: DE441}
Center-site name: BODY CENTER
*******************************************************************************
Start time      : A.D. 2015-Jan-02 00:00:00.0000 TDB
Stop  time      : A.D. 2015-Apr-29 00:00:00.0000 TDB
Step-size       : 60 minutes
*******************************************************************************
Center geodetic : 0.0, 0.0, 0.0                   {E-lon(deg),Lat(deg),Alt(km)}
Center cylindric: 0.0, 0.0, 0.0                   {E-lon(deg),Dxy(km),Dz(km)}
Center radii    : (undefined)
Output units    : KM-S
Calendar mode   : Mixed Julian/Gregorian
Output type     : GEOMETRIC cartesian states
Output format   : 3 (position, velocity, LT, range, range-rate)
Reference frame : Ecliptic of J2000.0
*******************************************************************************
            JDTDB,            Calendar Date (TDB),                      X,                      Y,                      Z,                     VX,                     VY,                     VZ,                     LT,                     RG,                     RR,
**************************************************************************************************************************************************************************************************************************************************************************
$$SOE
2457051.583333333, A.D. 2015-Jan-29 02:00:00.0000,  1.086977301554637E+08,  6.815342798574727E+06, -6.173431490714522E+06, -2.370693500774652E+00,  3.480044703841178E+01,  6.138612338427816E-01,  3.638717487449984E+02,  1.090860059530215E+08, -2.227751981358023E-01,
2457051.625000000, A.D. 2015-Jan-29 03:00:00.0000,  1.086891230773327E+08,  6.940619740274365E+06, -6.171217465675570E+06, -2.411016161391134E+00,  3.479784612258879E+01,  6.161525463129180E-01,  3.638690717451390E+02,  1.090852034086536E+08, -2.230827388529766E-01,
2457051.666666667, A.D. 2015-Jan-29 04:00:00.0000,  1.086803708420904E+08,  7.065887234619049E+06, -6.168995193321595E+06, -2.451336331477625E+00,  3.479519850817149E+01,  6.184430750120224E-01,  3.638663910538650E+02,  1.090843997576274E+08, -2.233900081953859E-01,
2457051.708333333, A.D. 2015-Jan-29 05:00:00.0000,  1.086714734587989E+08,  7.191145113497006E+06, -6.166764676479685E+06, -2.491653957531218E+00,  3.479250419692705E+01,  6.207328168766946E-01,  3.638637066744377E+02,  1.090835950009207E+08, -2.236970057757079E-01,
2457051.750000000, A.D. 2015-Jan-29 06:00:00.0000,  1.086624309367132E+08,  7.316393208802922E+06, -6.164525917987959E+06, -2.531968986048282E+00,  3.478976319068315E+01,  6.230217688443158E-01,  3.638610186101226E+02,  1.090827891395124E+08, -2.240037312069023E-01,
2457051.791666667, A.D. 2015-Jan-29 07:00:00.0000,  1.086532432852806E+08,  7.441631352438188E+06, -6.162278920695558E+06, -2.572281363524525E+00,  3.478697549132794E+01,  6.253099278530723E-01,  3.638583268641902E+02,  1.090819821743830E+08, -2.243101841022047E-01,
2457051.833333333, A.D. 2015-Jan-29 08:00:00.0000,  1.086439105141412E+08,  7.566859376311088E+06, -6.160023687462641E+06, -2.612591036455068E+00,  3.478414110081015E+01,  6.275972908419352E-01,  3.638556314399156E+02,  1.090811741065143E+08, -2.246163640751386E-01,
2457051.875000000, A.D. 2015-Jan-29 09:00:00.0000,  1.086344326331278E+08,  7.692077112337035E+06, -6.157760221160391E+06, -2.652897951334503E+00,  3.478126002113898E+01,  6.298838547506858E-01,  3.638529323405782E+02,  1.090803649368896E+08, -2.249222707395082E-01,
2457051.916666667, A.D. 2015-Jan-29 10:00:00.0000,  1.086248096522655E+08,  7.817284392438784E+06, -6.155488524671003E+06, -2.693202054656962E+00,  3.477833225438416E+01,  6.321696165198922E-01,  3.638502295694626E+02,  1.090795546664935E+08, -2.252279037093984E-01,
2457051.958333333, A.D. 2015-Jan-29 11:00:00.0000,  1.086150415817723E+08,  7.942481048546656E+06, -6.153208600887686E+06, -2.733503292916182E+00,  3.477535780267600E+01,  6.344545730909399E-01,  3.638475231298576E+02,  1.090787432963118E+08, -2.255332625991764E-01,
2457052.000000000, A.D. 2015-Jan-29 12:00:00.0000,  1.086051284320588E+08,  8.067666912598734E+06, -6.150920452714656E+06, -2.773801612605572E+00,  3.477233666820531E+01,  6.367387214060276E-01,  3.638448130250565E+02,  1.090779308273321E+08, -2.258383470234963E-01,
2457052.041666667, A.D. 2015-Jan-29 13:00:00.0000,  1.085950702137281E+08,  8.192841816541116E+06, -6.148624083067138E+06, -2.814096960218278E+00,  3.476926885322349E+01,  6.390220584081554E-01,  3.638420992583578E+02,  1.090771172605431E+08, -2.261431565972917E-01,
2457052.083333333, A.D. 2015-Jan-29 14:00:00.0000,  1.085848669375759E+08,  8.318005592328103E+06, -6.146319494871359E+06, -2.854389282247250E+00,  3.476615436004244E+01,  6.413045810411653E-01,  3.638393818330643E+02,  1.090763025969349E+08, -2.264476909357862E-01,
2457052.125000000, A.D. 2015-Jan-29 15:00:00.0000,  1.085745186145908E+08,  8.443158071922429E+06, -6.144006691064551E+06, -2.894678525185307E+00,  3.476299319103470E+01,  6.435862862496933E-01,  3.638366607524833E+02,  1.090754868374991E+08, -2.267519496544829E-01,
2457052.166666667, A.D. 2015-Jan-29 16:00:00.0000,  1.085640252559537E+08,  8.568299087295476E+06, -6.141685674594938E+06, -2.934964635525203E+00,  3.475978534863331E+01,  6.458671709792263E-01,  3.638339360199269E+02,  1.090746699832286E+08, -2.270559323691743E-01,
2457052.208333333, A.D. 2015-Jan-29 17:00:00.0000,  1.085533868730383E+08,  8.693428470427504E+06, -6.139356448421738E+06, -2.975247559759695E+00,  3.475653083533190E+01,  6.481472321760702E-01,  3.638312076387115E+02,  1.090738520351177E+08, -2.273596386959371E-01,
2457052.250000000, A.D. 2015-Jan-29 18:00:00.0000,  1.085426034774110E+08,  8.818546053307850E+06, -6.137019015515173E+06, -3.015527244381605E+00,  3.475322965368475E+01,  6.504264667873549E-01,  3.638284756121587E+02,  1.090730329941621E+08, -2.276630682511300E-01,
2457052.291666667, A.D. 2015-Jan-29 19:00:00.0000,  1.085316750808305E+08,  8.943651667935153E+06, -6.134673378856434E+06, -3.055803635883891E+00,  3.474988180630663E+01,  6.527048717610757E-01,  3.638257399435942E+02,  1.090722128613589E+08, -2.279662206514073E-01,
2457052.333333333, A.D. 2015-Jan-29 20:00:00.0000,  1.085206016952486E+08,  9.068745146317588E+06, -6.132319541437719E+06, -3.096076680759711E+00,  3.474648729587297E+01,  6.549824440460466E-01,  3.638230006363485E+02,  1.090713916377065E+08, -2.282690955137048E-01,
2457052.375000000, A.D. 2015-Jan-29 21:00:00.0000,  1.085093833328092E+08,  9.193826320473056E+06, -6.129957506262192E+06, -3.136346325502487E+00,  3.474304612511978E+01,  6.572591805919359E-01,  3.638202576937565E+02,  1.090705693242047E+08, -2.285716924552446E-01,
2457052.416666667, A.D. 2015-Jan-29 22:00:00.0000,  1.084980200058493E+08,  9.318895022429418E+06, -6.127587276344003E+06, -3.176612516605973E+00,  3.473955829684368E+01,  6.595350783492648E-01,  3.638175111191582E+02,  1.090697459218547E+08, -2.288740110935436E-01,
2457052.458333333, A.D. 2015-Jan-29 23:00:00.0000,  1.084865117268982E+08,  9.443951084224731E+06, -6.125208854708280E+06, -3.216875200564325E+00,  3.473602381390189E+01,  6.618101342693983E-01,  3.638147609158975E+02,  1.090689214316593E+08, -2.291760510463977E-01,
2457052.500000000, A.D. 2015-Jan-30 00:00:00.0000,  1.084748585086780E+08,  9.568994337907415E+06, -6.122822244391125E+06, -3.257134323872157E+00,  3.473244267921228E+01,  6.640843453045644E-01,  3.638120070873234E+02,  1.090680958546221E+08, -2.294778119319014E-01,
2457052.541666667, A.D. 2015-Jan-30 01:00:00.0000,  1.084630603641033E+08,  9.694024615536531E+06, -6.120427448439607E+06, -3.297389833024621E+00,  3.472881489575330E+01,  6.663577084078600E-01,  3.638092496367893E+02,  1.090672691917487E+08, -2.297792933684333E-01,
2457052.583333333, A.D. 2015-Jan-30 02:00:00.0000,  1.084511173062814E+08,  9.819041749181960E+06, -6.118024469911762E+06, -3.337641674517459E+00,  3.472514046656408E+01,  6.686302205332382E-01,  3.638064885676532E+02,  1.090664414440456E+08, -2.300804949746605E-01,
